FLYING LAPTOP           
1 42831U 17042G   26062.84293516  .00004407  00000+0  35328-3 0  9994
2 42831  97.4249 222.7783 0018522 114.4983 245.8175 15.00469402470659
HAWK-A                  
1 43765U 18099H   26062.69809019  .00010260  00000+0  43061-3 0  9995
2 43765  97.4066 116.3443 0034480 297.5670  62.2066 15.23113196397032
HAWK-B                  
1 43794U 18099AN  26062.66338122  .00008650  00000+0  38309-3 0  9995
2 43794  97.4115 115.9363 0031718 315.6030  44.2664 15.21424811396982
HAWK-C                  
1 43799U 18099AT  26062.70681389  .00011548  00000+0  43760-3 0  9998
2 43799  97.4042 116.7691 0040657 299.3627  60.3553 15.26267907397816
SALSAT                  
1 46495U 20068K   26062.77970161  .00012684  00000+0  46597-3 0  9992
2 46495  97.8847  59.5668 0008731 321.6728  38.3888 15.28039347299257
HAWK-2C                 
1 47502U 21006CT  26062.67165754  .00009122  00000+0  28677-3 0  9990
2 47502  97.2425 109.1133 0006287 206.4013 153.6910 15.33177115283323
HAWK-2A                 
1 47505U 21006CW  26062.67523883  .00012391  00000+0  38830-3 0  9998
2 47505  97.2469 109.7320 0005821 210.0170 150.0740 15.33197555283328
HAWK-2B                 
1 47508U 21006CZ  26062.67200066  .00009416  00000+0  29598-3 0  9991
2 47508  97.2341 108.2377 0006447 207.7849 152.3050 15.33169375283325
HAWK-3B                 
1 48931U 21059BE  26062.46119439  .00040232  00000+0  47913-3 0  9992
2 48931  97.6711 249.8313 0005422   1.9140 358.2136 15.60990994261319
HAWK-3C                 
1 48948U 21059BX  26062.52506705  .00051094  00000+0  60697-3 0  9995
2 48948  97.6860 255.3873 0006072   2.1760 357.9522 15.61001046261326
HAWK-3A                 
1 48957U 21059CG  26062.52489462  .00050220  00000+0  59670-3 0  9994
2 48957  97.6798 252.6810 0005544   1.3273 358.7997 15.61003624261329
HAWK-5C                 
1 52754U 22057Y   26062.71016984  .00028034  00000+0  55169-3 0  9996
2 52754  97.6443 216.0041 0005635  95.4272 264.7620 15.47209053210017
HAWK-5B                 
1 52756U 22057AA  26062.71004009  .00027725  00000+0  54561-3 0  9994
2 52756  97.6444 214.3440 0005627  90.4627 269.7266 15.47211057210012
HAWK-5A                 
1 52757U 22057AB  26062.70976028  .00028160  00000+0  55410-3 0  9991
2 52757  97.6445 215.1778 0006004  92.4479 267.7457 15.47209030210012
HAWK-6B                 
1 55324U 23011A   26062.70145932  .00008331  00000+0  36733-3 0  9992
2 55324  40.5117 246.8438 0002968 345.8045  14.2680 15.21808026171764
HAWK-6C                 
1 55326U 23011C   26062.56960701  .00008462  00000+0  37304-3 0  9997
2 55326  40.4817 244.4928 0003382 332.1862  27.8766 15.21799295171758
HAWK-6A                 
1 55327U 23011D   26062.70087345  .00008566  00000+0  37749-3 0  9996
2 55327  40.4971 245.3291 0003032 330.8809  29.1830 15.21805084171774
