[{"OBJECT_NAME":"FLYING LAPTOP","OBJECT_ID":"2017-042G","EPOCH":"2026-03-03T20:13:49.597824","MEAN_MOTION":15.00469402,"ECCENTRICITY":0.0018522,"INCLINATION":97.4249,"RA_OF_ASC_NODE":222.7783,"ARG_OF_PERICENTER":114.4983,"MEAN_ANOMALY":245.8175,"EPHEMERIS_TYPE":0,"CLASSIFICATION_TYPE":"U","NORAD_CAT_ID":42831,"ELEMENT_SET_NO":999,"REV_AT_EPOCH":47065,"BSTAR":0.00035328,"MEAN_MOTION_DOT":4.407e-5,"MEAN_MOTION_DDOT":0},{"OBJECT_NAME":"HAWK-A","OBJECT_ID":"2018-099H","EPOCH":"2026-03-03T16:45:14.992416","MEAN_MOTION":15.23113196,"ECCENTRICITY":0.003448,"INCLINATION":97.4066,"RA_OF_ASC_NODE":116.3443,"ARG_OF_PERICENTER":297.567,"MEAN_ANOMALY":62.2066,"EPHEMERIS_TYPE":0,"CLASSIFICATION_TYPE":"U","NORAD_CAT_ID":43765,"ELEMENT_SET_NO":999,"REV_AT_EPOCH":39703,"BSTAR":0.00043061,"MEAN_MOTION_DOT":0.0001026,"MEAN_MOTION_DDOT":0},{"OBJECT_NAME":"HAWK-B","OBJECT_ID":"2018-099AN","EPOCH":"2026-03-03T15:55:16.137408","MEAN_MOTION":15.21424811,"ECCENTRICITY":0.0031718,"INCLINATION":97.4115,"RA_OF_ASC_NODE":115.9363,"ARG_OF_PERICENTER":315.603,"MEAN_ANOMALY":44.2664,"EPHEMERIS_TYPE":0,"CLASSIFICATION_TYPE":"U","NORAD_CAT_ID":43794,"ELEMENT_SET_NO":999,"REV_AT_EPOCH":39698,"BSTAR":0.00038309,"MEAN_MOTION_DOT":8.65e-5,"MEAN_MOTION_DDOT":0},{"OBJECT_NAME":"HAWK-C","OBJECT_ID":"2018-099AT","EPOCH":"2026-03-03T16:57:48.720096","MEAN_MOTION":15.26267907,"ECCENTRICITY":0.0040657,"INCLINATION":97.4042,"RA_OF_ASC_NODE":116.7691,"ARG_OF_PERICENTER":299.3627,"MEAN_ANOMALY":60.3553,"EPHEMERIS_TYPE":0,"CLASSIFICATION_TYPE":"U","NORAD_CAT_ID":43799,"ELEMENT_SET_NO":999,"REV_AT_EPOCH":39781,"BSTAR":0.0004376,"MEAN_MOTION_DOT":0.00011548,"MEAN_MOTION_DDOT":0},{"OBJECT_NAME":"SALSAT","OBJECT_ID":"2020-068K","EPOCH":"2026-03-03T18:42:46.219104","MEAN_MOTION":15.28039347,"ECCENTRICITY":0.0008731,"INCLINATION":97.8847,"RA_OF_ASC_NODE":59.5668,"ARG_OF_PERICENTER":321.6728,"MEAN_ANOMALY":38.3888,"EPHEMERIS_TYPE":0,"CLASSIFICATION_TYPE":"U","NORAD_CAT_ID":46495,"ELEMENT_SET_NO":999,"REV_AT_EPOCH":29925,"BSTAR":0.00046597,"MEAN_MOTION_DOT":0.00012684,"MEAN_MOTION_DDOT":0},{"OBJECT_NAME":"HAWK-2C","OBJECT_ID":"2021-006CT","EPOCH":"2026-03-03T16:07:11.211456","MEAN_MOTION":15.33177115,"ECCENTRICITY":0.0006287,"INCLINATION":97.2425,"RA_OF_ASC_NODE":109.1133,"ARG_OF_PERICENTER":206.4013,"MEAN_ANOMALY":153.691,"EPHEMERIS_TYPE":0,"CLASSIFICATION_TYPE":"U","NORAD_CAT_ID":47502,"ELEMENT_SET_NO":999,"REV_AT_EPOCH":28332,"BSTAR":0.00028677,"MEAN_MOTION_DOT":9.122e-5,"MEAN_MOTION_DDOT":0},{"OBJECT_NAME":"HAWK-2A","OBJECT_ID":"2021-006CW","EPOCH":"2026-03-03T16:12:20.634912","MEAN_MOTION":15.33197555,"ECCENTRICITY":0.0005821,"INCLINATION":97.2469,"RA_OF_ASC_NODE":109.732,"ARG_OF_PERICENTER":210.017,"MEAN_ANOMALY":150.074,"EPHEMERIS_TYPE":0,"CLASSIFICATION_TYPE":"U","NORAD_CAT_ID":47505,"ELEMENT_SET_NO":999,"REV_AT_EPOCH":28332,"BSTAR":0.0003883,"MEAN_MOTION_DOT":0.00012391,"MEAN_MOTION_DDOT":0},{"OBJECT_NAME":"HAWK-2B","OBJECT_ID":"2021-006CZ","EPOCH":"2026-03-03T16:07:40.857024","MEAN_MOTION":15.33169375,"ECCENTRICITY":0.0006447,"INCLINATION":97.2341,"RA_OF_ASC_NODE":108.2377,"ARG_OF_PERICENTER":207.7849,"MEAN_ANOMALY":152.305,"EPHEMERIS_TYPE":0,"CLASSIFICATION_TYPE":"U","NORAD_CAT_ID":47508,"ELEMENT_SET_NO":999,"REV_AT_EPOCH":28332,"BSTAR":0.00029598,"MEAN_MOTION_DOT":9.416e-5,"MEAN_MOTION_DDOT":0},{"OBJECT_NAME":"HAWK-3B","OBJECT_ID":"2021-059BE","EPOCH":"2026-03-03T11:04:07.195296","MEAN_MOTION":15.60990994,"ECCENTRICITY":0.00054222,"INCLINATION":97.6711,"RA_OF_ASC_NODE":249.8313,"ARG_OF_PERICENTER":1.914,"MEAN_ANOMALY":358.2136,"EPHEMERIS_TYPE":0,"CLASSIFICATION_TYPE":"U","NORAD_CAT_ID":48931,"ELEMENT_SET_NO":999,"REV_AT_EPOCH":26131,"BSTAR":0.00047912598,"MEAN_MOTION_DOT":0.00040232,"MEAN_MOTION_DDOT":0},{"OBJECT_NAME":"HAWK-3C","OBJECT_ID":"2021-059BX","EPOCH":"2026-03-03T12:36:05.793120","MEAN_MOTION":15.61001046,"ECCENTRICITY":0.0006072,"INCLINATION":97.686,"RA_OF_ASC_NODE":255.3873,"ARG_OF_PERICENTER":2.176,"MEAN_ANOMALY":357.9522,"EPHEMERIS_TYPE":0,"CLASSIFICATION_TYPE":"U","NORAD_CAT_ID":48948,"ELEMENT_SET_NO":999,"REV_AT_EPOCH":26132,"BSTAR":0.00060697,"MEAN_MOTION_DOT":0.00051094,"MEAN_MOTION_DDOT":0},{"OBJECT_NAME":"HAWK-3A","OBJECT_ID":"2021-059CG","EPOCH":"2026-03-03T12:35:50.895168","MEAN_MOTION":15.61003624,"ECCENTRICITY":0.0005544,"INCLINATION":97.6798,"RA_OF_ASC_NODE":252.681,"ARG_OF_PERICENTER":1.3273,"MEAN_ANOMALY":358.7997,"EPHEMERIS_TYPE":0,"CLASSIFICATION_TYPE":"U","NORAD_CAT_ID":48957,"ELEMENT_SET_NO":999,"REV_AT_EPOCH":26132,"BSTAR":0.0005967,"MEAN_MOTION_DOT":0.0005022,"MEAN_MOTION_DDOT":0},{"OBJECT_NAME":"HAWK-5C","OBJECT_ID":"2022-057Y","EPOCH":"2026-03-03T17:02:38.674176","MEAN_MOTION":15.47209053,"ECCENTRICITY":0.0005635,"INCLINATION":97.6443,"RA_OF_ASC_NODE":216.0041,"ARG_OF_PERICENTER":95.4272,"MEAN_ANOMALY":264.762,"EPHEMERIS_TYPE":0,"CLASSIFICATION_TYPE":"U","NORAD_CAT_ID":52754,"ELEMENT_SET_NO":999,"REV_AT_EPOCH":21001,"BSTAR":0.00055169,"MEAN_MOTION_DOT":0.00028034,"MEAN_MOTION_DDOT":0},{"OBJECT_NAME":"HAWK-5B","OBJECT_ID":"2022-057AA","EPOCH":"2026-03-03T17:02:27.463776","MEAN_MOTION":15.47211057,"ECCENTRICITY":0.0005627,"INCLINATION":97.6444,"RA_OF_ASC_NODE":214.344,"ARG_OF_PERICENTER":90.4627,"MEAN_ANOMALY":269.7266,"EPHEMERIS_TYPE":0,"CLASSIFICATION_TYPE":"U","NORAD_CAT_ID":52756,"ELEMENT_SET_NO":999,"REV_AT_EPOCH":21001,"BSTAR":0.00054561,"MEAN_MOTION_DOT":0.00027725,"MEAN_MOTION_DDOT":0},{"OBJECT_NAME":"HAWK-5A","OBJECT_ID":"2022-057AB","EPOCH":"2026-03-03T17:02:03.288192","MEAN_MOTION":15.4720903,"ECCENTRICITY":0.0006004,"INCLINATION":97.6445,"RA_OF_ASC_NODE":215.1778,"ARG_OF_PERICENTER":92.4479,"MEAN_ANOMALY":267.7457,"EPHEMERIS_TYPE":0,"CLASSIFICATION_TYPE":"U","NORAD_CAT_ID":52757,"ELEMENT_SET_NO":999,"REV_AT_EPOCH":21001,"BSTAR":0.0005541,"MEAN_MOTION_DOT":0.0002816,"MEAN_MOTION_DDOT":0},{"OBJECT_NAME":"HAWK-6B","OBJECT_ID":"2023-011A","EPOCH":"2026-03-03T16:50:06.085248","MEAN_MOTION":15.21808026,"ECCENTRICITY":0.0002968,"INCLINATION":40.5117,"RA_OF_ASC_NODE":246.8438,"ARG_OF_PERICENTER":345.8045,"MEAN_ANOMALY":14.268,"EPHEMERIS_TYPE":0,"CLASSIFICATION_TYPE":"U","NORAD_CAT_ID":55324,"ELEMENT_SET_NO":999,"REV_AT_EPOCH":17176,"BSTAR":0.00036733,"MEAN_MOTION_DOT":8.331e-5,"MEAN_MOTION_DDOT":0},{"OBJECT_NAME":"HAWK-6C","OBJECT_ID":"2023-011C","EPOCH":"2026-03-03T13:40:14.045664","MEAN_MOTION":15.21799295,"ECCENTRICITY":0.0003382,"INCLINATION":40.4817,"RA_OF_ASC_NODE":244.4928,"ARG_OF_PERICENTER":332.1862,"MEAN_ANOMALY":27.8766,"EPHEMERIS_TYPE":0,"CLASSIFICATION_TYPE":"U","NORAD_CAT_ID":55326,"ELEMENT_SET_NO":999,"REV_AT_EPOCH":17175,"BSTAR":0.00037304,"MEAN_MOTION_DOT":8.462e-5,"MEAN_MOTION_DDOT":0},{"OBJECT_NAME":"HAWK-6A","OBJECT_ID":"2023-011D","EPOCH":"2026-03-03T16:49:15.466080","MEAN_MOTION":15.21805084,"ECCENTRICITY":0.0003032,"INCLINATION":40.4971,"RA_OF_ASC_NODE":245.3291,"ARG_OF_PERICENTER":330.8809,"MEAN_ANOMALY":29.183,"EPHEMERIS_TYPE":0,"CLASSIFICATION_TYPE":"U","NORAD_CAT_ID":55327,"ELEMENT_SET_NO":999,"REV_AT_EPOCH":17177,"BSTAR":0.00037749,"MEAN_MOTION_DOT":8.566e-5,"MEAN_MOTION_DDOT":0}]
